CCSDS_OEM_VERS = 2.0
CREATION_DATE  = 2025-09-12T20:39:48.904
ORIGINATOR     = Python_HGV

META_START
OBJECT_NAME          = HGV_00010
OBJECT_ID            = 0000-000A
CENTER_NAME          = Earth
REF_FRAME            = ICRF
TIME_SYSTEM          = UTC
INTERPOLATION        = LAGRANGE
INTERPOLATION_DEGREE = 5
START_TIME           = 2025-07-22T00:00:00.000
STOP_TIME            = 2025-07-22T00:25:46.000
META_STOP

2025-07-22T00:14:40.000  1.968326e+03  3.051787e+03  5.284035e+03 -6.402836e-01 -1.525641e+00  1.067812e+00
2025-07-22T00:14:41.000  1.967685e+03  3.050260e+03  5.285100e+03 -6.426276e-01 -1.528690e+00  1.061271e+00
2025-07-22T00:14:42.000  1.967041e+03  3.048729e+03  5.286158e+03 -6.449667e-01 -1.531732e+00  1.054744e+00
2025-07-22T00:14:43.000  1.966395e+03  3.047196e+03  5.287209e+03 -6.473001e-01 -1.534766e+00  1.048232e+00
2025-07-22T00:14:44.000  1.965747e+03  3.045660e+03  5.288254e+03 -6.496270e-01 -1.537789e+00  1.041738e+00
2025-07-22T00:14:45.000  1.965096e+03  3.044121e+03  5.289293e+03 -6.519464e-01 -1.540801e+00  1.035261e+00
2025-07-22T00:14:46.000  1.964443e+03  3.042578e+03  5.290325e+03 -6.542574e-01 -1.543801e+00  1.028806e+00
2025-07-22T00:14:47.000  1.963787e+03  3.041033e+03  5.291350e+03 -6.565591e-01 -1.546785e+00  1.022372e+00
2025-07-22T00:14:48.000  1.963130e+03  3.039485e+03  5.292369e+03 -6.588505e-01 -1.549753e+00  1.015962e+00
2025-07-22T00:14:49.000  1.962470e+03  3.037933e+03  5.293382e+03 -6.611307e-01 -1.552703e+00  1.009578e+00
2025-07-22T00:14:50.000  1.961807e+03  3.036379e+03  5.294388e+03 -6.633985e-01 -1.555634e+00  1.003222e+00
2025-07-22T00:14:51.000  1.961143e+03  3.034822e+03  5.295389e+03 -6.656529e-01 -1.558543e+00  9.968959e-01
2025-07-22T00:14:52.000  1.960476e+03  3.033262e+03  5.296382e+03 -6.678929e-01 -1.561429e+00  9.906020e-01
2025-07-22T00:14:53.000  1.959807e+03  3.031699e+03  5.297370e+03 -6.701173e-01 -1.564290e+00  9.843425e-01
2025-07-22T00:14:54.000  1.959136e+03  3.030134e+03  5.298351e+03 -6.723250e-01 -1.567123e+00  9.781199e-01
2025-07-22T00:14:55.000  1.958462e+03  3.028565e+03  5.299326e+03 -6.745146e-01 -1.569927e+00  9.719366e-01
2025-07-22T00:14:56.000  1.957787e+03  3.026994e+03  5.300295e+03 -6.766850e-01 -1.572700e+00  9.657954e-01
2025-07-22T00:14:57.000  1.957109e+03  3.025420e+03  5.301258e+03 -6.788348e-01 -1.575440e+00  9.596990e-01
2025-07-22T00:14:58.000  1.956429e+03  3.023843e+03  5.302214e+03 -6.809626e-01 -1.578143e+00  9.536503e-01
2025-07-22T00:14:59.000  1.955747e+03  3.022263e+03  5.303165e+03 -6.830670e-01 -1.580809e+00  9.476524e-01
2025-07-22T00:15:00.000  1.955063e+03  3.020681e+03  5.304110e+03 -6.851465e-01 -1.583433e+00  9.417085e-01
2025-07-22T00:15:01.000  1.954377e+03  3.019097e+03  5.305048e+03 -6.871994e-01 -1.586014e+00  9.358220e-01
2025-07-22T00:15:02.000  1.953688e+03  3.017509e+03  5.305981e+03 -6.892241e-01 -1.588550e+00  9.299966e-01
2025-07-22T00:15:03.000  1.952998e+03  3.015919e+03  5.306908e+03 -6.912188e-01 -1.591036e+00  9.242359e-01
2025-07-22T00:15:04.000  1.952306e+03  3.014327e+03  5.307830e+03 -6.931818e-01 -1.593470e+00  9.185441e-01
2025-07-22T00:15:05.000  1.951612e+03  3.012732e+03  5.308745e+03 -6.951110e-01 -1.595849e+00  9.129252e-01
2025-07-22T00:15:06.000  1.950916e+03  3.011135e+03  5.309655e+03 -6.970045e-01 -1.598170e+00  9.073837e-01
2025-07-22T00:15:07.000  1.950218e+03  3.009536e+03  5.310560e+03 -6.988601e-01 -1.600428e+00  9.019243e-01
2025-07-22T00:15:08.000  1.949518e+03  3.007935e+03  5.311459e+03 -7.006756e-01 -1.602621e+00  8.965518e-01
2025-07-22T00:15:09.000  1.948817e+03  3.006331e+03  5.312353e+03 -7.024486e-01 -1.604744e+00  8.912715e-01
2025-07-22T00:15:10.000  1.948113e+03  3.004725e+03  5.313242e+03 -7.041767e-01 -1.606794e+00  8.860887e-01
2025-07-22T00:15:11.000  1.947408e+03  3.003117e+03  5.314125e+03 -7.058572e-01 -1.608766e+00  8.810092e-01
2025-07-22T00:15:12.000  1.946701e+03  3.001508e+03  5.315004e+03 -7.074874e-01 -1.610656e+00  8.760390e-01
2025-07-22T00:15:13.000  1.945993e+03  2.999896e+03  5.315877e+03 -7.090643e-01 -1.612458e+00  8.711844e-01
2025-07-22T00:15:14.000  1.945283e+03  2.998283e+03  5.316746e+03 -7.105851e-01 -1.614168e+00  8.664521e-01
2025-07-22T00:15:15.000  1.944572e+03  2.996668e+03  5.317610e+03 -7.120465e-01 -1.615781e+00  8.618489e-01
2025-07-22T00:15:16.000  1.943859e+03  2.995051e+03  5.318470e+03 -7.134450e-01 -1.617292e+00  8.573823e-01
2025-07-22T00:15:17.000  1.943145e+03  2.993433e+03  5.319325e+03 -7.147774e-01 -1.618694e+00  8.530597e-01
2025-07-22T00:15:18.000  1.942430e+03  2.991814e+03  5.320176e+03 -7.160397e-01 -1.619981e+00  8.488893e-01
2025-07-22T00:15:19.000  1.941713e+03  2.990193e+03  5.321023e+03 -7.172283e-01 -1.621147e+00  8.448791e-01
2025-07-22T00:15:20.000  1.940995e+03  2.988571e+03  5.321866e+03 -7.183390e-01 -1.622186e+00  8.410380e-01
2025-07-22T00:15:21.000  1.940276e+03  2.986949e+03  5.322705e+03 -7.193677e-01 -1.623090e+00  8.373749e-01
2025-07-22T00:15:22.000  1.939557e+03  2.985325e+03  5.323541e+03 -7.203098e-01 -1.623853e+00  8.338991e-01
2025-07-22T00:15:23.000  1.938836e+03  2.983701e+03  5.324373e+03 -7.211609e-01 -1.624466e+00  8.306201e-01
2025-07-22T00:15:24.000  1.938114e+03  2.982076e+03  5.325202e+03 -7.219162e-01 -1.624922e+00  8.275480e-01
2025-07-22T00:15:25.000  1.937392e+03  2.980451e+03  5.326028e+03 -7.225706e-01 -1.625212e+00  8.246928e-01
2025-07-22T00:15:26.000  1.936669e+03  2.978826e+03  5.326851e+03 -7.229544e-01 -1.625054e+00  8.224060e-01
2025-07-22T00:15:27.000  1.935946e+03  2.977201e+03  5.327673e+03 -7.227262e-01 -1.623880e+00  8.213906e-01
2025-07-22T00:15:28.000  1.935224e+03  2.975578e+03  5.328494e+03 -7.220309e-01 -1.621930e+00  8.213372e-01
2025-07-22T00:15:29.000  1.934502e+03  2.973957e+03  5.329315e+03 -7.211856e-01 -1.619730e+00  8.215830e-01
2025-07-22T00:15:30.000  1.933781e+03  2.972339e+03  5.330137e+03 -7.201856e-01 -1.617270e+00  8.221340e-01
2025-07-22T00:15:31.000  1.933062e+03  2.970723e+03  5.330960e+03 -7.190263e-01 -1.614543e+00  8.229959e-01
2025-07-22T00:15:32.000  1.932343e+03  2.969110e+03  5.331783e+03 -7.177033e-01 -1.611541e+00  8.241732e-01
2025-07-22T00:15:33.000  1.931626e+03  2.967500e+03  5.332608e+03 -7.162126e-01 -1.608255e+00  8.256694e-01
2025-07-22T00:15:34.000  1.930911e+03  2.965893e+03  5.333434e+03 -7.145502e-01 -1.604680e+00  8.274869e-01
2025-07-22T00:15:35.000  1.930197e+03  2.964290e+03  5.334263e+03 -7.127128e-01 -1.600807e+00  8.296269e-01
2025-07-22T00:15:36.000  1.929485e+03  2.962691e+03  5.335094e+03 -7.106972e-01 -1.596631e+00  8.320892e-01
2025-07-22T00:15:37.000  1.928776e+03  2.961097e+03  5.335927e+03 -7.085011e-01 -1.592147e+00  8.348719e-01
2025-07-22T00:15:38.000  1.928068e+03  2.959507e+03  5.336763e+03 -7.061224e-01 -1.587349e+00  8.379718e-01
2025-07-22T00:15:39.000  1.927363e+03  2.957922e+03  5.337603e+03 -7.035597e-01 -1.582235e+00  8.413839e-01
2025-07-22T00:15:40.000  1.926661e+03  2.956343e+03  5.338446e+03 -7.008125e-01 -1.576802e+00  8.451013e-01
2025-07-22T00:15:41.000  1.925962e+03  2.954769e+03  5.339293e+03 -6.978807e-01 -1.571049e+00  8.491154e-01
2025-07-22T00:15:42.000  1.925265e+03  2.953201e+03  5.340144e+03 -6.947652e-01 -1.564975e+00  8.534156e-01
2025-07-22T00:15:43.000  1.924572e+03  2.951639e+03  5.341000e+03 -6.914678e-01 -1.558582e+00  8.579895e-01
2025-07-22T00:15:44.000  1.923882e+03  2.950083e+03  5.341860e+03 -6.879911e-01 -1.551874e+00  8.628227e-01
2025-07-22T00:15:45.000  1.923196e+03  2.948535e+03  5.342726e+03 -6.843386e-01 -1.544853e+00  8.678989e-01
2025-07-22T00:15:46.000  1.922514e+03  2.946994e+03  5.343596e+03 -6.805149e-01 -1.537527e+00  8.732001e-01
2025-07-22T00:15:47.000  1.921835e+03  2.945460e+03  5.344472e+03 -6.765256e-01 -1.529903e+00  8.787064e-01
2025-07-22T00:15:48.000  1.921161e+03  2.943934e+03  5.345354e+03 -6.723771e-01 -1.521991e+00  8.843963e-01
2025-07-22T00:15:49.000  1.920491e+03  2.942416e+03  5.346241e+03 -6.680770e-01 -1.513802e+00  8.902470e-01
2025-07-22T00:15:50.000  1.919825e+03  2.940906e+03  5.347134e+03 -6.636339e-01 -1.505349e+00  8.962342e-01
2025-07-22T00:15:51.000  1.919163e+03  2.939405e+03  5.348033e+03 -6.590571e-01 -1.496648e+00  9.023325e-01
2025-07-22T00:15:52.000  1.918507e+03  2.937913e+03  5.348939e+03 -6.543571e-01 -1.487714e+00  9.085158e-01
2025-07-22T00:15:53.000  1.917855e+03  2.936430e+03  5.349850e+03 -6.495449e-01 -1.478565e+00  9.147570e-01
2025-07-22T00:15:54.000  1.917207e+03  2.934956e+03  5.350768e+03 -6.446327e-01 -1.469222e+00  9.210291e-01
2025-07-22T00:15:55.000  1.916565e+03  2.933491e+03  5.351693e+03 -6.396330e-01 -1.459705e+00  9.273044e-01
2025-07-22T00:15:56.000  1.915928e+03  2.932036e+03  5.352623e+03 -6.345590e-01 -1.450035e+00  9.335558e-01
2025-07-22T00:15:57.000  1.915296e+03  2.930591e+03  5.353560e+03 -6.294244e-01 -1.440237e+00  9.397562e-01
2025-07-22T00:15:58.000  1.914669e+03  2.929156e+03  5.354502e+03 -6.242434e-01 -1.430334e+00  9.458793e-01
2025-07-22T00:15:59.000  1.914048e+03  2.927731e+03  5.355451e+03 -6.190301e-01 -1.420351e+00  9.518996e-01
2025-07-22T00:16:00.000  1.913431e+03  2.926315e+03  5.356406e+03 -6.137989e-01 -1.410312e+00  9.577928e-01
2025-07-22T00:16:01.000  1.912820e+03  2.924910e+03  5.357367e+03 -6.085643e-01 -1.400242e+00  9.635357e-01
2025-07-22T00:16:02.000  1.912214e+03  2.923515e+03  5.358333e+03 -6.033406e-01 -1.390168e+00  9.691067e-01
2025-07-22T00:16:03.000  1.911613e+03  2.922130e+03  5.359305e+03 -5.981416e-01 -1.380113e+00  9.744855e-01
2025-07-22T00:16:04.000  1.911018e+03  2.920755e+03  5.360282e+03 -5.929810e-01 -1.370102e+00  9.796539e-01
2025-07-22T00:16:05.000  1.910427e+03  2.919389e+03  5.361264e+03 -5.878721e-01 -1.360159e+00  9.845950e-01
2025-07-22T00:16:06.000  1.909842e+03  2.918034e+03  5.362251e+03 -5.828274e-01 -1.350306e+00  9.892943e-01
2025-07-22T00:16:07.000  1.909262e+03  2.916689e+03  5.363243e+03 -5.778589e-01 -1.340566e+00  9.937386e-01
